ORBCOMM FM37            
1 33064U 08031E   25322.27858106  .00002545  00000+0  35667-3 0  9994
2 33064  48.4398 330.7541 0005740 315.6003 140.5594 14.80465818936877
ORBCOMM FM40            
1 33065U 08031F   25322.21672148  .00003584  00000+0  46321-3 0  9992
2 33065  48.4413 312.4131 0006709 331.3458 122.3653 14.82929137937015
VESSELSAT 1             
1 37840U 11058C   25322.86222344  .00000407  00000+0  77501-4 0  9996
2 37840  19.9614 237.9268 0013769  88.2866 271.9115 14.11391750728189
ORBCOMM FM109           
1 40086U 14040A   25322.81975304  .00001002  00000+0  25018-3 0  9999
2 40086  47.0048   5.8468 0002252 308.0084  52.0598 14.58480079603631
ORBCOMM FM107           
1 40087U 14040B   25322.42929317  .00000930  00000+0  23431-3 0  9996
2 40087  47.0057   8.5912 0002094 266.8699  93.1947 14.58557166603651
ORBCOMM FM106           
1 40088U 14040C   25322.75988196  .00001399  00000+0  26220-3 0  9992
2 40088  47.0576 176.6772 0016078  64.8008 295.4548 14.69937918606214
ORBCOMM FM111           
1 40089U 14040D   25322.84474196  .00003244  00000+0  37500-3 0  9997
2 40089  47.0021   5.2306 0029477 215.8123 144.0798 14.87491675613245
ORBCOMM FM104           
1 40090U 14040E   25322.51941767  .00001009  00000+0  25973-3 0  9994
2 40090  47.0057  43.6406 0016638 193.2595 166.7854 14.56949261603125
